[{"OBJECT_NAME":"STARLINK-31754","OBJECT_ID":"2024-071E","EPOCH":"2026-03-09T03:17:05.090208","MEAN_MOTION":15.27584946,"ECCENTRICITY":0.00013284,"INCLINATION":43.0014,"RA_OF_ASC_NODE":350.432,"ARG_OF_PERICENTER":258.4045,"MEAN_ANOMALY":101.6657,"EPHEMERIS_TYPE":0,"CLASSIFICATION_TYPE":"U","NORAD_CAT_ID":59488,"ELEMENT_SET_NO":999,"REV_AT_EPOCH":10803,"BSTAR":0.00012843048,"MEAN_MOTION_DOT":3.274e-5,"MEAN_MOTION_DDOT":0},{"OBJECT_NAME":"PEGASUS R\/B","OBJECT_ID":"2007-015B","EPOCH":"2026-03-09T10:58:33.801024","MEAN_MOTION":15.26741121,"ECCENTRICITY":0.00105976,"INCLINATION":97.9168,"RA_OF_ASC_NODE":31.3919,"ARG_OF_PERICENTER":317.6341,"MEAN_ANOMALY":42.4077,"EPHEMERIS_TYPE":0,"CLASSIFICATION_TYPE":"U","NORAD_CAT_ID":31305,"ELEMENT_SET_NO":999,"REV_AT_EPOCH":3383,"BSTAR":0.00044093522,"MEAN_MOTION_DOT":0.00011537,"MEAN_MOTION_DDOT":0}]
